OBJECT_NAME,OBJECT_ID,EPOCH,MEAN_MOTION,ECCENTRICITY,INCLINATION,RA_OF_ASC_NODE,ARG_OF_PERICENTER,MEAN_ANOMALY,EPHEMERIS_TYPE,CLASSIFICATION_TYPE,NORAD_CAT_ID,ELEMENT_SET_NO,REV_AT_EPOCH,BSTAR,MEAN_MOTION_DOT,MEAN_MOTION_DDOT
STARLINK-37618,2026-115T,2026-06-09T10:24:23.574816,15.80382595,.0002546,97.2833,177.5055,38.2760,321.8688,0,U,69228,999,346,-.23299498E-2,-.41756E-2,0
STARLINK-37679,2026-115U,2026-06-09T11:57:35.756064,15.80893222,.00013599,97.2832,177.5702,87.0837,273.0587,0,U,69229,999,347,.12323865E-2,.243482E-2,0
STARLINK-37746,2026-115V,2026-06-09T11:59:53.424960,15.80324131,.00024125,97.2831,177.5680,54.2807,305.8685,0,U,69230,999,347,-.29658759E-2,-.523741E-2,0
STARLINK-37557,2026-115W,2026-06-09T11:55:36.795360,15.80870270,.00037506,97.2834,177.5728,332.0612,28.0454,0,U,69231,999,347,.22562327E-2,.456594E-2,0
STARLINK-37745,2026-115X,2026-06-09T11:49:23.802240,15.80864901,.00013739,97.2835,177.5787,69.5333,290.6083,0,U,69232,999,347,.93402834E-3,.182979E-2,0
STARLINK-37739,2026-115Y,2026-06-09T14:00:04.000032,15.76711574,.000186,97.2838,177.6583,89.9950,30.0103,0,U,69233,999,347,-.18861043E-1,-.2562284E-1,0
STARLINK-37755,2026-115Z,2026-06-09T14:00:04.000032,15.75238515,.00014783,97.2846,177.6365,93.4837,330.8223,0,U,69234,999,347,-.56553386E-3,-.83838E-3,0
TJS-24,2026-116A,2026-06-09T17:11:18.161088,1.00270576,.0000645,0.0253,246.5756,172.5584,187.0858,0,U,69235,999,15,0,-.214E-5,0
STARLINK-37665,2026-117A,2026-06-09T14:00:04.000032,15.82026992,.00008022,53.1591,281.7930,60.8560,197.3442,0,U,69238,999,295,-.27228872E-3,-.57035E-3,0
STARLINK-37558,2026-117B,2026-06-09T14:00:04.000032,15.82026826,.00010534,53.1590,281.7818,71.4502,192.1664,0,U,69239,999,295,-.22715762E-3,-.47751E-3,0
STARLINK-37680,2026-117C,2026-06-09T14:00:04.000032,15.82028626,.00011246,53.1593,281.7642,73.0215,198.7983,0,U,69240,999,294,-.24960087E-3,-.52376E-3,0
STARLINK-37742,2026-117D,2026-06-09T14:00:04.000032,15.81999654,.00007345,53.1595,281.7444,76.1404,205.8591,0,U,69241,999,295,.35021729E-4,.6577E-4,0
STARLINK-37718,2026-117E,2026-06-09T14:00:04.000032,15.81999311,.00011351,53.1592,281.7293,75.2313,213.8075,0,U,69242,999,294,-.92743624E-4,-.19954E-3,0
STARLINK-37735,2026-117F,2026-06-09T14:00:04.000032,15.82011699,.00011153,53.1594,281.7279,86.6605,202.9748,0,U,69243,999,295,-.13220673E-3,-.28131E-3,0
STARLINK-37757,2026-117G,2026-06-09T14:00:04.000032,15.81993297,.00006696,53.1595,281.6999,100.0794,203.2118,0,U,69244,999,295,.8638219E-5,.1085E-4,0
STARLINK-37767,2026-117H,2026-06-09T14:00:04.000032,15.81997842,.00009724,53.1590,281.6490,92.6026,234.9744,0,U,69245,999,295,.14657266E-3,.29871E-3,0
STARLINK-35759,2026-117J,2026-06-09T14:00:04.000032,15.81999478,.00006722,53.1589,281.6406,91.1403,240.3556,0,U,69246,999,300,.54541439E-4,.10645E-3,0
STARLINK-37238,2026-117K,2026-06-09T14:00:04.000032,15.81979593,.00011055,53.1586,281.5880,76.1837,280.6147,0,U,69247,999,295,.24798942E-3,.51115E-3,0
STARLINK-37412,2026-117L,2026-06-09T14:00:04.000032,15.81981927,.00011131,53.1580,281.5486,80.8201,295.1945,0,U,69248,999,302,.6608354E-5,.662E-5,0
STARLINK-37398,2026-117M,2026-06-09T14:00:04.000032,15.83067986,.00005091,53.1579,281.5401,64.1399,315.8012,0,U,69249,999,302,-.10018426E-1,-.1912444E-1,0
STARLINK-37499,2026-117N,2026-06-09T14:00:04.000032,15.81962206,.00012192,53.1582,281.5278,74.2523,311.5587,0,U,69250,999,302,.32072203E-3,.66379E-3,0
STARLINK-37489,2026-117P,2026-06-09T14:00:04.000032,15.81980432,.00003987,53.1582,281.5070,98.5952,297.2406,0,U,69251,999,302,.63662344E-4,.12536E-3,0
STARLINK-37434,2026-117Q,2026-06-09T14:00:04.000032,15.82098368,.00011197,53.1574,281.4719,69.2764,343.4331,0,U,69252,999,295,-.90569862E-3,-.185937E-2,0
STARLINK-37368,2026-117R,2026-06-09T14:00:04.000032,15.84322440,.00010803,53.1567,281.3966,39.8521,49.0950,0,U,69253,999,302,-.98002459E-2,-.1977637E-1,0
STARLINK-37517,2026-117S,2026-06-09T14:00:04.000032,15.84548144,.00008158,53.1564,281.3824,72.0735,23.8877,0,U,69254,999,302,-.94295874E-2,-.1930604E-1,0
STARLINK-37378,2026-117T,2026-06-09T14:00:04.000032,15.84317654,.00009382,53.1568,281.3768,54.5769,43.8149,0,U,69255,999,294,-.99721534E-2,-.2006994E-1,0
STARLINK-37396,2026-117U,2026-06-09T14:00:04.000032,15.84616496,.00011467,53.1562,281.3486,54.5030,57.1882,0,U,69256,999,302,-.93151995E-2,-.1916067E-1,0
STARLINK-37508,2026-117V,2026-06-09T14:00:04.000032,15.84744059,.00011185,53.1558,281.3297,70.9114,49.7381,0,U,69257,999,294,-.24977816E-2,-.55623E-2,0
STARLINK-37276,2026-117W,2026-06-09T14:00:04.000032,15.92588495,.00011059,53.1551,281.1416,68.2598,142.4581,0,U,69258,999,294,-.60343425E-2,-.2097176E-1,.11961474E-2
