STARLINK-37618          
1 69228U 26115T   26160.43360619 -.00417560  00000+0 -23299-2 0  9990
2 69228  97.2833 177.5055 0002546  38.2760 321.8688 15.80382595  3469
STARLINK-37679          
1 69229U 26115U   26160.49833051  .00243482  00000+0  12324-2 0  9997
2 69229  97.2832 177.5702 0001359  87.0837 273.0587 15.80893222  3477
STARLINK-37746          
1 69230U 26115V   26160.49992390 -.00523741  00000+0 -29659-2 0  9991
2 69230  97.2831 177.5680 0002412  54.2807 305.8685 15.80324131  3478
STARLINK-37557          
1 69231U 26115W   26160.49695365  .00456594  00000+0  22562-2 0  9999
2 69231  97.2834 177.5728 0003750 332.0612  28.0454 15.80870270  3470
STARLINK-37745          
1 69232U 26115X   26160.49263660  .00182979  00000+0  93403-3 0  9995
2 69232  97.2835 177.5787 0001373  69.5333 290.6083 15.80864901  3477
STARLINK-37739          
1 69233U 26115Y   26160.58337963 -.02562284  00000+0 -18861-1 0  9992
2 69233  97.2838 177.6583 0001860  89.9950  30.0103 15.76711574  3479
STARLINK-37755          
1 69234U 26115Z   26160.58337963 -.00083838  00000+0 -56553-3 0  9996
2 69234  97.2846 177.6365 0001478  93.4837 330.8223 15.75238515  3478
TJS-24                  
1 69235U 26116A   26160.71618242 -.00000214  00000+0  00000+0 0  9993
2 69235   0.0253 246.5756 0000645 172.5584 187.0858  1.00270576   150
STARLINK-37665          
1 69238U 26117A   26160.58337963 -.00057035  00000+0 -27229-3 0  9990
2 69238  53.1591 281.7930 0000802  60.8560 197.3442 15.82026992  2959
STARLINK-37558          
1 69239U 26117B   26160.58337963 -.00047751  00000+0 -22716-3 0  9991
2 69239  53.1590 281.7818 0001053  71.4502 192.1664 15.82026826  2952
STARLINK-37680          
1 69240U 26117C   26160.58337963 -.00052376  00000+0 -24960-3 0  9995
2 69240  53.1593 281.7642 0001124  73.0215 198.7983 15.82028626  2945
STARLINK-37742          
1 69241U 26117D   26160.58337963  .00006577  00000+0  35022-4 0  9998
2 69241  53.1595 281.7444 0000734  76.1404 205.8591 15.81999654  2951
STARLINK-37718          
1 69242U 26117E   26160.58337963 -.00019954  00000+0 -92744-4 0  9998
2 69242  53.1592 281.7293 0001135  75.2313 213.8075 15.81999311  2941
STARLINK-37735          
1 69243U 26117F   26160.58337963 -.00028131  00000+0 -13221-3 0  9998
2 69243  53.1594 281.7279 0001115  86.6605 202.9748 15.82011699  2958
STARLINK-37757          
1 69244U 26117G   26160.58337963  .00001085  00000+0  86382-5 0  9996
2 69244  53.1595 281.6999 0000669 100.0794 203.2118 15.81993297  2958
STARLINK-37767          
1 69245U 26117H   26160.58337963  .00029871  00000+0  14657-3 0  9994
2 69245  53.1590 281.6490 0000972  92.6026 234.9744 15.81997842  2957
STARLINK-35759          
1 69246U 26117J   26160.58337963  .00010645  00000+0  54541-4 0  9991
2 69246  53.1589 281.6406 0000672  91.1403 240.3556 15.81999478  3009
STARLINK-37238          
1 69247U 26117K   26160.58337963  .00051115  00000+0  24799-3 0  9990
2 69247  53.1586 281.5880 0001105  76.1837 280.6147 15.81979593  2950
STARLINK-37412          
1 69248U 26117L   26160.58337963  .00000662  00000+0  66084-5 0  9997
2 69248  53.1580 281.5486 0001113  80.8201 295.1945 15.81981927  3023
STARLINK-37398          
1 69249U 26117M   26160.58337963 -.01912444  00000+0 -10018-1 0  9993
2 69249  53.1579 281.5401 0000509  64.1399 315.8012 15.83067986  3027
STARLINK-37499          
1 69250U 26117N   26160.58337963  .00066379  00000+0  32072-3 0  9995
2 69250  53.1582 281.5278 0001219  74.2523 311.5587 15.81962206  3022
STARLINK-37489          
1 69251U 26117P   26160.58337963  .00012536  00000+0  63662-4 0  9992
2 69251  53.1582 281.5070 0000398  98.5952 297.2406 15.81980432  3026
STARLINK-37434          
1 69252U 26117Q   26160.58337963 -.00185937  00000+0 -90570-3 0  9998
2 69252  53.1574 281.4719 0001119  69.2764 343.4331 15.82098368  2956
STARLINK-37368          
1 69253U 26117R   26160.58337963 -.01977637  00000+0 -98002-2 0  9993
2 69253  53.1567 281.3966 0001080  39.8521  49.0950 15.84322440  3021
STARLINK-37517          
1 69254U 26117S   26160.58337963 -.01930604  00000+0 -94296-2 0  9998
2 69254  53.1564 281.3824 0000815  72.0735  23.8877 15.84548144  3022
STARLINK-37378          
1 69255U 26117T   26160.58337963 -.02006994  00000+0 -99722-2 0  9995
2 69255  53.1568 281.3768 0000938  54.5769  43.8149 15.84317654  2946
STARLINK-37396          
1 69256U 26117U   26160.58337963 -.01916067  00000+0 -93152-2 0  9997
2 69256  53.1562 281.3486 0001146  54.5030  57.1882 15.84616496  3029
STARLINK-37508          
1 69257U 26117V   26160.58337963 -.00556230  00000+0 -24978-2 0  9999
2 69257  53.1558 281.3297 0001118  70.9114  49.7381 15.84744059  2947
STARLINK-37276          
1 69258U 26117W   26160.58337963 -.02097176  11961-2 -60343-2 0  9998
2 69258  53.1551 281.1416 0001105  68.2598 142.4581 15.92588495  2946
